OBJECT_NAME,OBJECT_ID,EPOCH,MEAN_MOTION,ECCENTRICITY,INCLINATION,RA_OF_ASC_NODE,ARG_OF_PERICENTER,MEAN_ANOMALY,EPHEMERIS_TYPE,CLASSIFICATION_TYPE,NORAD_CAT_ID,ELEMENT_SET_NO,REV_AT_EPOCH,BSTAR,MEAN_MOTION_DOT,MEAN_MOTION_DDOT
STARLINK-37975,2026-147D,2026-07-23T20:00:01.999008,15.60704048,.0002028,97.2850,241.6729,80.9655,111.7419,0,U,69707,999,512,-.34047E-1,-.246351E-1,0
STARLINK-37972,2026-147E,2026-07-23T20:00:01.999008,15.72554104,.0001508,97.2850,241.7166,90.5579,215.1987,0,U,69708,999,512,-.21402E-1,-.2444532E-1,0
STARLINK-37963,2026-147F,2026-07-23T20:00:01.999008,15.60643111,.0002028,97.2841,241.6554,86.9610,76.5821,0,U,69709,999,512,-.33863E-1,-.2446868E-1,0
STARLINK-37969,2026-147G,2026-07-23T20:00:01.999008,15.59617269,.0001515,97.2850,241.6580,76.5298,82.6316,0,U,69710,999,527,-.13043E-1,-.940118E-2,0
STARLINK-37956,2026-147H,2026-07-23T20:00:01.999008,15.54747020,.0002254,97.2846,241.6375,67.0981,47.9256,0,U,69711,999,512,-.40828E-1,-.2372701E-1,0
STARLINK-38043,2026-147J,2026-07-23T20:00:01.999008,15.71476990,.000153,97.2850,241.7204,89.7267,224.6197,0,U,69712,999,512,-.22451E-1,-.2504351E-1,0
STARLINK-38020,2026-147K,2026-07-23T20:00:01.999008,15.56359079,.0001603,97.2846,241.6453,86.0582,52.8380,0,U,69713,999,512,-.41303E-1,-.2523966E-1,0
STARLINK-38059,2026-147L,2026-07-23T20:00:01.999008,15.55190084,.0001933,97.2844,241.6398,65.2273,58.8117,0,U,69714,999,512,-.41617E-1,-.2446968E-1,0
STARLINK-38061,2026-147M,2026-07-23T20:00:01.999008,15.59219791,.0002048,97.2854,241.6778,74.6739,130.6894,0,U,69715,999,521,-.35266E-1,-.241706E-1,0
STARLINK-38060,2026-147N,2026-07-23T20:00:01.999008,15.68763773,.0001045,97.2848,241.7158,87.2930,217.9827,0,U,69716,999,521,-.17799E-1,-.1776641E-1,0
STARLINK-38040,2026-147P,2026-07-23T20:00:01.999008,15.57857720,.0001983,97.2854,241.6770,73.2245,129.5451,0,U,69717,999,521,-.39029E-1,-.2523629E-1,0
STARLINK-37989,2026-147Q,2026-07-23T20:00:01.999008,15.59139018,.0001858,97.2850,241.6679,73.1545,109.5650,0,U,69718,999,521,-.35474E-1,-.2422824E-1,0
STARLINK-38039,2026-147R,2026-07-23T20:00:01.999008,15.70857112,.0001353,97.2851,241.7331,68.7017,274.3882,0,U,69719,999,521,-.23232E-1,-.2521809E-1,0
STARLINK-38003,2026-147S,2026-07-23T20:00:01.999008,15.68244414,.0001423,97.2850,241.7243,63.2510,264.0345,0,U,69720,999,521,-.14118E-1,-.1394624E-1,0
STARLINK-38014,2026-147T,2026-07-23T20:00:01.999008,15.66466307,.0001447,97.2848,241.7216,79.7832,238.5909,0,U,69721,999,521,-.27271E-1,-.2475939E-1,0
STARLINK-37915,2026-147U,2026-07-23T20:00:01.999008,15.68489269,.0001383,97.2853,241.7315,89.4747,248.7936,0,U,69722,999,521,-.1811E-1,-.1786239E-1,0
STARLINK-38007,2026-147V,2026-07-23T20:00:01.999008,15.68153894,.0001294,97.2850,241.7224,89.8361,233.0414,0,U,69723,999,521,-.25594E-1,-.2487527E-1,0
STARLINK-38008,2026-147W,2026-07-23T20:00:01.999008,15.68808855,.0001536,97.2849,241.7339,87.3387,255.3806,0,U,69724,999,521,-.20766E-1,-.2078781E-1,0
STARLINK-38021,2026-147X,2026-07-23T20:00:01.999008,15.65473394,.0001265,97.2848,241.7223,82.6698,237.4237,0,U,69725,999,521,-.28619E-1,-.2493447E-1,0
STARLINK-38015,2026-147Y,2026-07-23T12:42:59.612832,15.75293163,.0001003,97.2850,241.3872,7.4014,352.7265,0,U,69726,999,517,.1595E-2,.245841E-2,0
STARLINK-38010,2026-147Z,2026-07-23T21:05:07.336896,15.75347535,.0001785,97.2827,241.6782,32.6657,327.4719,0,U,69727,999,522,.14464E-2,.222848E-2,0
SXM-11,2026-148A,2026-07-23T17:32:41.379072,1.00271293,.0001671,0.0893,264.7869,216.5305,322.7827,0,U,69728,999,41,0,.15E-6,0
HAIYANG-2E,2026-149A,2026-07-23T20:43:43.056192,13.79299063,.0001537,99.3447,211.6709,81.6644,278.4682,0,U,69737,999,301,.13264E-4,-.31E-6,0
CZ-4B R/B,2026-149B,2026-07-23T09:03:23.307840,14.30069948,.0197809,99.3221,212.9809,306.4688,51.8404,0,U,69738,999,330,.55782E-4,.12E-5,0
STARLINK-38033,2026-150A,2026-07-23T12:05:13.657056,15.80993010,.0001372,97.2836,43.3473,120.0249,240.1155,0,U,69739,999,463,.20438E-2,.413842E-2,0
STARLINK-38076,2026-150B,2026-07-23T02:34:32.922336,15.75196356,.00012559,97.2843,42.8113,96.1296,264.0112,0,U,69740,999,456,.13756777E-2,.21025E-2,0
STARLINK-38074,2026-150C,2026-07-23T04:51:46.413792,15.75214472,.00018047,97.2845,42.9903,96.4315,263.7156,0,U,69741,999,458,.13247972E-2,.202444E-2,0
STARLINK-38041,2026-150D,2026-07-23T12:42:53.148384,15.75207107,.0001285,97.2852,43.3101,66.9272,293.2129,0,U,69742,999,463,.75844E-3,.11461E-2,0
STARLINK-38087,2026-150E,2026-07-23T11:00:44.538912,15.75245536,.0001109,97.2850,43.2512,32.6719,327.4615,0,U,69743,999,462,.13062E-2,.1998E-2,0
STARLINK-38078,2026-150F,2026-07-23T20:00:01.999008,15.75202399,.00013,97.2842,43.6999,98.7497,347.6689,0,U,69744,999,468,-.56512E-3,-.83645E-3,0
