STARLINK-37975          
1 69707U 26147D   26204.83335647 -.02463510  00000+0 -34047-1 0  9993
2 69707  97.2850 241.6729 0002028  80.9655 111.7419 15.60704048  5125
STARLINK-37972          
1 69708U 26147E   26204.83335647 -.02444532  00000+0 -21402-1 0  9998
2 69708  97.2850 241.7166 0001508  90.5579 215.1987 15.72554104  5124
STARLINK-37963          
1 69709U 26147F   26204.83335647 -.02446868  00000+0 -33863-1 0  9997
2 69709  97.2841 241.6554 0002028  86.9610  76.5821 15.60643111  5128
STARLINK-37969          
1 69710U 26147G   26204.83335647 -.00940118  00000+0 -13043-1 0  9992
2 69710  97.2850 241.6580 0001515  76.5298  82.6316 15.59617269  5272
STARLINK-37956          
1 69711U 26147H   26204.83335647 -.02372701  00000+0 -40828-1 0  9993
2 69711  97.2846 241.6375 0002254  67.0981  47.9256 15.54747020  5120
STARLINK-38043          
1 69712U 26147J   26204.83335647 -.02504351  00000+0 -22451-1 0  9994
2 69712  97.2850 241.7204 0001530  89.7267 224.6197 15.71476990  5124
STARLINK-38020          
1 69713U 26147K   26204.83335647 -.02523966  00000+0 -41303-1 0  9995
2 69713  97.2846 241.6453 0001603  86.0582  52.8380 15.56359079  5122
STARLINK-38059          
1 69714U 26147L   26204.83335647 -.02446968  00000+0 -41617-1 0  9990
2 69714  97.2844 241.6398 0001933  65.2273  58.8117 15.55190084  5123
STARLINK-38061          
1 69715U 26147M   26204.83335647 -.02417060  00000+0 -35266-1 0  9995
2 69715  97.2854 241.6778 0002048  74.6739 130.6894 15.59219791  5218
STARLINK-38060          
1 69716U 26147N   26204.83335647 -.01776641  00000+0 -17799-1 0  9999
2 69716  97.2848 241.7158 0001045  87.2930 217.9827 15.68763773  5213
STARLINK-38040          
1 69717U 26147P   26204.83335647 -.02523629  00000+0 -39029-1 0  9997
2 69717  97.2854 241.6770 0001983  73.2245 129.5451 15.57857720  5210
STARLINK-37989          
1 69718U 26147Q   26204.83335647 -.02422824  00000+0 -35474-1 0  9993
2 69718  97.2850 241.6679 0001858  73.1545 109.5650 15.59139018  5212
STARLINK-38039          
1 69719U 26147R   26204.83335647 -.02521809  00000+0 -23232-1 0  9996
2 69719  97.2851 241.7331 0001353  68.7017 274.3882 15.70857112  5217
STARLINK-38003          
1 69720U 26147S   26204.83335647 -.01394624  00000+0 -14118-1 0  9993
2 69720  97.2850 241.7243 0001423  63.2510 264.0345 15.68244414  5218
STARLINK-38014          
1 69721U 26147T   26204.83335647 -.02475939  00000+0 -27271-1 0  9998
2 69721  97.2848 241.7216 0001447  79.7832 238.5909 15.66466307  5218
STARLINK-37915          
1 69722U 26147U   26204.83335647 -.01786239  00000+0 -18110-1 0  9998
2 69722  97.2853 241.7315 0001383  89.4747 248.7936 15.68489269  5214
STARLINK-38007          
1 69723U 26147V   26204.83335647 -.02487527  00000+0 -25594-1 0  9992
2 69723  97.2850 241.7224 0001294  89.8361 233.0414 15.68153894  5218
STARLINK-38008          
1 69724U 26147W   26204.83335647 -.02078781  00000+0 -20766-1 0  9997
2 69724  97.2849 241.7339 0001536  87.3387 255.3806 15.68808855  5210
STARLINK-38021          
1 69725U 26147X   26204.83335647 -.02493447  00000+0 -28619-1 0  9993
2 69725  97.2848 241.7223 0001265  82.6698 237.4237 15.65473394  5216
STARLINK-38015          
1 69726U 26147Y   26204.52985663  .00245841  00000+0  15950-2 0  9993
2 69726  97.2850 241.3872 0001003   7.4014 352.7265 15.75293163  5175
STARLINK-38010          
1 69727U 26147Z   26204.87855714  .00222848  00000+0  14464-2 0  9996
2 69727  97.2827 241.6782 0001785  32.6657 327.4719 15.75347535  5225
SXM-11                  
1 69728U 26148A   26204.73103448  .00000015  00000+0  00000+0 0  9991
2 69728   0.0893 264.7869 0001671 216.5305 322.7827  1.00271293   414
HAIYANG-2E              
1 69737U 26149A   26204.86369278 -.00000031  00000+0  13264-4 0  9991
2 69737  99.3447 211.6709 0001537  81.6644 278.4682 13.79299063  3011
CZ-4B R/B               
1 69738U 26149B   26204.37735310  .00000120  00000+0  55782-4 0  9991
2 69738  99.3221 212.9809 0197809 306.4688  51.8404 14.30069948  3303
STARLINK-38033          
1 69739U 26150A   26204.50363029  .00413842  00000+0  20438-2 0  9990
2 69739  97.2836  43.3473 0001372 120.0249 240.1155 15.80993010  4633
STARLINK-38076          
1 69740U 26150B   26204.10732549  .00210250  00000+0  13757-2 0  9999
2 69740  97.2843  42.8113 0001255  96.1296 264.0112 15.75196356  4565
STARLINK-38074          
1 69741U 26150C   26204.20262053  .00202444  00000+0  13248-2 0  9990
2 69741  97.2845  42.9903 0001804  96.4315 263.7156 15.75214472  4587
STARLINK-38041          
1 69742U 26150D   26204.52978181  .00114610  00000+0  75844-3 0  9990
2 69742  97.2852  43.3101 0001285  66.9272 293.2129 15.75207107  4639
STARLINK-38087          
1 69743U 26150E   26204.45884883  .00199800  00000+0  13062-2 0  9995
2 69743  97.2850  43.2512 0001109  32.6719 327.4615 15.75245536  4621
STARLINK-38078          
1 69744U 26150F   26204.83335647 -.00083645  00000+0 -56512-3 0  9996
2 69744  97.2842  43.6999 0001300  98.7497 347.6689 15.75202399  4686
